0 FENGYUN 1C DEB
1 31026U 99025BDU 13281.74575690  .00000091  00000-0  11356-3 0  4876
2 31026 098.6644 123.7406 0137161 339.7272 019.8513 13.81793078331456
0 FENGYUN 1C DEB
1 31026U 99025BDU 13284.35244899  .00000094  00000-0  11649-3 0  4889
2 31026 098.6652 126.1372 0137075 332.6810 026.7188 13.81793840331810
0 FENGYUN 1C DEB
1 31026U 99025BDU 13287.32118356  .00000097  00000-0  11897-3 0  4896
2 31026 098.6661 128.8675 0136943 324.6603 034.5553 13.81794715332220
0 FENGYUN 1C DEB
1 31026U 99025BDU 13289.34861273  .00000101  00000-0  12245-3 0  4909
2 31026 098.6661 130.7314 0136908 319.1762 039.9227 13.81795390332506
0 FENGYUN 1C DEB
1 31026U 99025BDU 13291.37604219  .00000105  00000-0  12604-3 0  4914
2 31026 098.6658 132.5953 0136684 313.6826 045.3083 13.81796092332783
0 FENGYUN 1C DEB
1 31026U 99025BDU 13294.77923042  .00000112  00000-0  13218-3 0  4920
2 31026 098.6659 135.7240 0136912 304.4876 054.3449 13.81797343333254
